NORAD_CAT_ID,OBJECT_NAME,OBJECT_TYPE,EPOCH,MEAN_MOTION,ECCENTRICITY,INCLINATION,RA_OF_ASC_NODE,ARG_OF_PERICENTER,MEAN_ANOMALY,BSTAR,MEAN_MOTION_DOT,MEAN_MOTION_DDOT,TLE_LINE0,TLE_LINE1,TLE_LINE2,SEMIMAJOR_AXIS,PERIOD,APOGEE,PERIGEE,DECAYED
50834.0,STARLINK-3331,PAYLOAD,2022-03-10 06:00:00,15.266697199999998,0.0001315,53.2175,256.1637,58.1698,303.1309,-0.026813,-0.00661446,0.0,0 STARLINK-3331,1 50834U 22001AH  22069.25001157 -.00661446  00000-0 -26813-1 0  9995,2 50834  53.2175 256.1637 0001315  58.1698 303.1309 15.26669720 11052,6863.913000000001,94.323,486.681,484.876,0.0
50834.0,STARLINK-3331,PAYLOAD,2022-03-10 14:00:01,15.26100704,0.0001315999999999,53.2165,254.6252,48.0553,346.0324,-0.021134,-0.00515654,0.0,0 STARLINK-3331,1 50834U 22001AH  22069.58334491 -.00515654  00000-0 -21134-1 0  9991,2 50834  53.2165 254.6252 0001316  48.0553 346.0324 15.26100704  3625,6865.619000000002,94.358,488.388,486.581,0.0
50834.0,STARLINK-3331,PAYLOAD,2022-03-10 22:00:01,15.25734078,0.000162,53.2175,253.0868,42.7349,23.5383,-0.027403,-0.00657401,0.0,0 STARLINK-3331,1 50834U 22001AH  22069.91668981 -.00657401  00000-0 -27403-1 0  9994,2 50834  53.2175 253.0868 0001620  42.7349  23.5383 15.25734078  3655,6866.719,94.381,489.696,487.472,0.0
50834.0,STARLINK-3331,PAYLOAD,2022-03-11 12:00:00,15.24917566,0.0001575,53.2174,250.3946,44.2803,346.8859,-0.028032,-0.00656189,0.0,0 STARLINK-3331,1 50834U 22001AH  22070.50001157 -.00656189  00000-0 -28032-1 0  9998,2 50834  53.2174 250.3946 0001575  44.2803 346.8859 15.24917566 11249,6869.17,94.431,492.117,489.953,0.0
50834.0,STARLINK-3331,PAYLOAD,2022-03-11 14:00:01,15.24802233,0.0001739,53.2175,250.0109,43.0905,85.7859,-0.028259,-0.00659013,0.0,0 STARLINK-3331,1 50834U 22001AH  22070.58334491 -.00659013  00000-0 -28259-1 0  9996,2 50834  53.2175 250.0109 0001739  43.0905  85.7859 15.24802233  3626,6869.516,94.438,492.576,490.187,0.0
50834.0,STARLINK-3331,PAYLOAD,2022-03-11 22:00:00,15.24331981,0.0001719,53.2174,248.4772,45.5187,113.8503,-0.028384,-0.00653077,0.0,0 STARLINK-3331,1 50834U 22001AH  22070.91667824 -.00653077  00000-0 -28384-1 0  9995,2 50834  53.2174 248.4772 0001719  45.5187 113.8503 15.24331981  3647,6870.929,94.468,493.975,491.61300000000006,0.0
50834.0,STARLINK-3331,PAYLOAD,2022-03-12 14:00:01,15.23401669,0.0001859,53.2175,245.4081,42.6389,176.0324,-0.029391,-0.00657353,0.0,0 STARLINK-3331,1 50834U 22001AH  22071.58334491 -.00657353  00000-0 -29391-1 0  9990,2 50834  53.2175 245.4081 0001859  42.6389 176.0324 15.23401669 11400,6873.726,94.525,496.869,494.31300000000016,0.0
50834.0,STARLINK-3331,PAYLOAD,2022-03-12 22:00:00,15.22932306,0.0001578,53.2174,243.8774,54.2937,193.188,-0.029566,-0.00652413,0.0,0 STARLINK-3331,1 50834U 22001AH  22071.91667824 -.00652413  00000-0 -29566-1 0  9992,2 50834  53.2174 243.8774 0001578  54.2937 193.1880 15.22932306  3657,6875.138000000001,94.554,498.088,495.918,0.0
50834.0,STARLINK-3331,PAYLOAD,2022-03-13 14:00:01,15.22002636,0.0001655,53.2175,240.8149,45.7392,257.6808,-0.030687,-0.00658265,0.0,0 STARLINK-3331,1 50834U 22001AH  22072.58334491 -.00658265  00000-0 -30687-1 0  9994,2 50834  53.2175 240.8149 0001655  45.7392 257.6808 15.22002636  3668,6877.938,94.612,500.941,498.664,0.0
50834.0,STARLINK-3331,PAYLOAD,2022-03-13 20:00:01,15.21652762,0.0001579,53.2174,239.6696,54.7551,179.0627,-0.030994,-0.00658012,0.0,0 STARLINK-3331,1 50834U 22001AH  22072.83334491 -.00658012  00000-0 -30994-1 0  9993,2 50834  53.2174 239.6696 0001579  54.7551 179.0627 15.21652762 11599,6878.9919999999975,94.634,501.943,499.771,0.0
50834.0,STARLINK-3331,PAYLOAD,2022-03-13 22:00:01,15.21534037,0.0001464,53.2174,239.2873,52.2587,278.3529,-0.030928,-0.0065456,0.0,0 STARLINK-3331,1 50834U 22001AH  22072.91668981 -.00654560  00000-0 -30928-1 0  9997,2 50834  53.2174 239.2873 0001464  52.2587 278.3529 15.21534037  3653,6879.35,94.641,502.222,500.208,0.0
50834.0,STARLINK-3331,PAYLOAD,2022-03-14 14:00:01,15.20603829,0.0001747,53.2175,236.2316,37.5498,345.6366,-0.0320709999999999,-0.00660011,0.0,0 STARLINK-3331,1 50834U 22001AH  22073.58335648 -.00660011  00000-0 -32071-1 0  9991,2 50834  53.2175 236.2316 0001747  37.5498 345.6366 15.20603829  3623,6882.155,94.699,505.222,502.818,0.0
50834.0,STARLINK-3331,PAYLOAD,2022-03-14 20:00:01,15.20252728,0.0001533,53.2174,235.0886,52.2488,260.0112,-0.03228,-0.00657656,0.0,0 STARLINK-3331,1 50834U 22001AH  22073.83334491 -.00657656  00000-0 -32280-1 0  9997,2 50834  53.2174 235.0886 0001533  52.2488 260.0112 15.20252728 11757,6883.215,94.721,506.135,504.024,0.0
50834.0,STARLINK-3331,PAYLOAD,2022-03-15 02:00:01,15.19903766,0.0001595,53.2172,233.9438,53.2106,187.8721,-0.032729,-0.00667049,0.0,0 STARLINK-3331,1 50834U 22001AH  22074.08334491 -.00667049  00000-0 -32729-1 0  9990,2 50834  53.2172 233.9438 0001595  53.2106 187.8721 15.19903766  3623,6884.268,94.743,507.231,505.035,0.0
50834.0,STARLINK-3331,PAYLOAD,2022-03-15 22:00:00,15.18734155,0.0001664,53.2171,230.1369,44.4704,77.0754,-0.03354,-0.00661066,0.0,0 STARLINK-3331,1 50834U 22001AH  22074.91667824 -.00661066  00000-0 -33540-1 0  9996,2 50834  53.2171 230.1369 0001664  44.4704  77.0754 15.18734155 11917,6887.802,94.816,510.81300000000016,508.521,0.0
50834.0,STARLINK-3331,PAYLOAD,2022-03-16 14:00:01,15.17802392,0.0002129,53.2173,227.0945,34.0793,133.314,-0.034619,-0.00664013,0.0,0 STARLINK-3331,1 50834U 22001AH  22075.58334491 -.00664013  00000-0 -34619-1 0  9994,2 50834  53.2173 227.0945 0002129  34.0793 133.3140 15.17802392  3648,6890.621,94.874,513.953,511.019,0.0
50834.0,STARLINK-3331,PAYLOAD,2022-03-16 20:00:01,15.1745141,0.0001799,53.2173,225.9563,40.7673,53.2403,-0.034881,-0.00662366,0.0,0 STARLINK-3331,1 50834U 22001AH  22075.83334491 -.00662366  00000-0 -34881-1 0  9992,2 50834  53.2173 225.9563 0001799  40.7673  53.2403 15.17451410 12052,6891.683000000001,94.896,514.788,512.308,0.0
50834.0,STARLINK-3331,PAYLOAD,2022-03-17 14:00:01,15.16402084,0.0002144,53.2173,222.5406,33.4245,198.535,-0.035965,-0.00662668,0.0,0 STARLINK-3331,1 50834U 22001AH  22076.58334491 -.00662668  00000-0 -35965-1 0  9994,2 50834  53.2173 222.5406 0002144  33.4245 198.5350 15.16402084  3641,6894.861999999999,94.962,518.205,515.249,0.0
50834.0,STARLINK-3331,PAYLOAD,2022-03-17 22:00:00,15.15936965,0.0002162,53.217,221.0255,31.6103,220.7488,-0.036569,-0.00664747,0.0,0 STARLINK-3331,1 50834U 22001AH  22076.91667824 -.00664747  00000-0 -36569-1 0  9991,2 50834  53.2170 221.0255 0002162  31.6103 220.7488 15.15936965  3646,6896.272,94.991,519.628,516.6469999999998,0.0
50834.0,STARLINK-3331,PAYLOAD,2022-03-18 08:00:01,15.15353036,0.0001789,53.2172,219.1304,37.4937,329.5793,-0.037133,-0.00663858,0.0,0 STARLINK-3331,1 50834U 22001AH  22077.33334491 -.00663858  00000-0 -37133-1 0  9999,2 50834  53.2172 219.1304 0001789  37.4937 329.5793 15.15353036 12283,6898.044,95.027,521.143,518.675,0.0
50834.0,STARLINK-3331,PAYLOAD,2022-03-18 14:00:01,15.15002548,0.0001842,53.2172,217.9965,40.5889,250.8908,-0.037439,-0.0066276,0.0,0 STARLINK-3331,1 50834U 22001AH  22077.58334491 -.00662760  00000-0 -37439-1 0  9996,2 50834  53.2172 217.9965 0001842  40.5889 250.8908 15.15002548  3646,6899.108,95.049,522.244,519.702,0.0
50834.0,STARLINK-3331,PAYLOAD,2022-03-18 22:00:00,15.14538296,0.0001483,53.217,216.4843,53.3558,256.8416,-0.038169,-0.0066653999999999,0.0,0 STARLINK-3331,1 50834U 22001AH  22077.91667824 -.00666540  00000-0 -38169-1 0  9993,2 50834  53.2170 216.4843 0001483  53.3558 256.8416 15.14538296  3653,6900.518,95.078,523.406,521.359,0.0
50834.0,STARLINK-3331,PAYLOAD,2022-03-19 14:00:01,15.13603496,0.0001739,53.2173,213.4621,41.3919,304.5623,-0.039021,-0.00663832,0.0,0 STARLINK-3331,1 50834U 22001AH  22078.58334491 -.00663832  00000-0 -39021-1 0  9997,2 50834  53.2173 213.4621 0001739  41.3919 304.5623 15.13603496 12474,6903.358,95.137,526.424,524.023,0.0
50834.0,STARLINK-3331,PAYLOAD,2022-03-19 22:00:01,15.13138399,0.0001477,53.2171,211.9529,50.3187,312.7347,-0.039693,-0.00666278,0.0,0 STARLINK-3331,1 50834U 22001AH  22078.91668981 -.00666278  00000-0 -39693-1 0  9990,2 50834  53.2171 211.9529 0001477  50.3187 312.7347 15.13138399  3657,6904.773,95.166,527.658,525.618,0.0
50834.0,STARLINK-3331,PAYLOAD,2022-03-20 14:00:01,15.12204198,0.0001934,53.2174,208.9375,33.8041,1.5789,-0.040646,-0.00664753,0.0,0 STARLINK-3331,1 50834U 22001AH  22079.58334491 -.00664753  00000-0 -40646-1 0  9996,2 50834  53.2174 208.9375 0001934  33.8041   1.5789 15.12204198  3628,6907.616,95.225,530.817,528.146,0.0
50834.0,STARLINK-3331,PAYLOAD,2022-03-20 22:00:01,15.11737856,0.0001592,53.2172,207.4314,45.2751,5.5258,-0.041193,-0.0066492,0.0,0 STARLINK-3331,1 50834U 22001AH  22079.91668981 -.00664920  00000-0 -41193-1 0  9991,2 50834  53.2172 207.4314 0001592  45.2751   5.5258 15.11737856 12679,6909.0369999999975,95.255,532.002,529.802,0.0
50834.0,STARLINK-3331,PAYLOAD,2022-03-21 14:00:01,15.10804448,0.0001899,53.2174,204.4227,37.26,42.5062,-0.042276,-0.00664907,0.0,0 STARLINK-3331,1 50834U 22001AH  22080.58334491 -.00664907  00000-0 -42276-1 0  9990,2 50834  53.2174 204.4227 0001899  37.2600  42.5062 15.10804448  3625,6911.882,95.313,535.06,532.435,0.0
50834.0,STARLINK-3331,PAYLOAD,2022-03-21 22:00:00,15.10337214,0.0001622,53.2172,202.9197,47.5453,45.8943,-0.042722,-0.00663338,0.0,0 STARLINK-3331,1 50834U 22001AH  22080.91667824 -.00663338  00000-0 -42722-1 0  9999,2 50834  53.2172 202.9197 0001622  47.5453  45.8943 15.10337214  3622,6913.308000000001,95.343,536.294,534.0509999999998,0.0
50834.0,STARLINK-3331,PAYLOAD,2022-03-22 06:00:00,15.09870251,0.0001754999999999,53.2174,201.4165,42.0102,64.5431,-0.043278,-0.00663348,0.0,0 STARLINK-3331,1 50834U 22001AH  22081.25001157 -.00663348  00000-0 -43278-1 0  9996,2 50834  53.2174 201.4165 0001755  42.0102  64.5431 15.09870251 12879,6914.733,95.372,537.812,535.385,0.0
